{
  "type": "FeatureCollection",
  "crs": {
    "type": "name",
    "properties": {
      "name": "urn:ogc:def:crs:EPSG::4326"
    }
  },
  "features": [
    {
      "type": "Feature",
      "geometry": {
        "type": "Polygon",
        "coordinates": [
          [
            [
              80.0,
              17.99829319343508
            ],
            [
              80.0,
              17.998203361510615
            ],
            [
              80.0026410585794,
              17.998203361510615
            ],
            [
              80.0026410585794,
              17.99818539512572
            ],
            [
              80.00267699134919,
              17.99818539512572
            ],
            [
              80.00267699134919,
              17.998167428740825
            ],
            [
              80.00271292411897,
              17.998167428740825
            ],
            [
              80.00271292411897,
              17.998149462355933
            ],
            [
              80.00273089050387,
              17.998149462355933
            ],
            [
              80.00273089050387,
              17.998167428740825
            ],
            [
              80.00276682327366,
              17.998167428740825
            ],
            [
              80.00276682327366,
              17.998203361510615
            ],
            [
              80.00278478965855,
              17.998203361510615
            ],
            [
              80.00278478965855,
              17.998221327895507
            ],
            [
              80.00280275604344,
              17.998221327895507
            ],
            [
              80.00280275604344,
              17.99827522705019
            ],
            [
              80.00276682327366,
              17.99827522705019
            ],
            [
              80.00276682327366,
              17.99829319343508
            ],
            [
              80.0,
              17.99829319343508
            ]
          ]
        ]
      },
      "properties": {
        "class": "vegetation_loss",
        "area_px": 790.0
      }
    },
    {
      "type": "Feature",
      "geometry": {
        "type": "Polygon",
        "coordinates": [
          [
            [
              80.00388073913707,
              17.99829319343508
            ],
            [
              80.00388073913707,
              17.99827522705019
            ],
            [
              80.00384480636728,
              17.99827522705019
            ],
            [
              80.00384480636728,
              17.998221327895507
            ],
            [
              80.00386277275219,
              17.998221327895507
            ],
            [
              80.00386277275219,
              17.998203361510615
            ],
            [
              80.00388073913707,
              17.998203361510615
            ],
            [
              80.00388073913707,
              17.998149462355933
            ],
            [
              80.00391667190686,
              17.998149462355933
            ],
            [
              80.00391667190686,
              17.998131495971037
            ],
            [
              80.00393463829175,
              17.998131495971037
            ],
            [
              80.00393463829175,
              17.998149462355933
            ],
            [
              80.00397057106154,
              17.998149462355933
            ],
            [
              80.00397057106154,
              17.998167428740825
            ],
            [
              80.00398853744643,
              17.998167428740825
            ],
            [
              80.00398853744643,
              17.99818539512572
            ],
            [
              80.00402447021622,
              17.99818539512572
            ],
            [
              80.00402447021622,
              17.998203361510615
            ],
            [
              80.00459939453283,
              17.998203361510615
            ],
            [
              80.00459939453283,
              17.99829319343508
            ],
            [
              80.00388073913707,
              17.99829319343508
            ]
          ]
        ]
      },
      "properties": {
        "class": "vegetation_loss",
        "area_px": 227.0
      }
    },
    {
      "type": "Feature",
      "geometry": {
        "type": "Polygon",
        "coordinates": [
          [
            [
              80.00075458816555,
              17.996945714568042
            ],
            [
              80.00075458816555,
              17.99692774818315
            ],
            [
              80.00071865539576,
              17.99692774818315
            ],
            [
              80.00071865539576,
              17.996873849028468
            ],
            [
              80.00075458816555,
              17.996873849028468
            ],
            [
              80.00075458816555,
              17.996855882643572
            ],
            [
              80.00107798309364,
              17.996855882643572
            ],
            [
              80.00107798309364,
              17.99683791625868
            ],
            [
              80.00111391586341,
              17.99683791625868
            ],
            [
              80.00111391586341,
              17.996819949873785
            ],
            [
              80.0011498486332,
              17.996819949873785
            ],
            [
              80.0011498486332,
              17.99683791625868
            ],
            [
              80.001185781403,
              17.99683791625868
            ],
            [
              80.001185781403,
              17.996855882643572
            ],
            [
              80.00222783172684,
              17.996855882643572
            ],
            [
              80.00222783172684,
              17.99683791625868
            ],
            [
              80.00226376449663,
              17.99683791625868
            ],
            [
              80.00226376449663,
              17.996819949873785
            ],
            [
              80.00229969726641,
              17.996819949873785
            ],
            [
              80.00229969726641,
              17.99683791625868
            ],
            [
              80.0023356300362,
              17.99683791625868
            ],
            [
              80.0023356300362,
              17.996855882643572
            ],
            [
              80.00355734420899,
              17.996855882643572
            ],
            [
              80.00355734420899,
              17.996873849028468
            ],
            [
              80.00359327697878,
              17.996873849028468
            ],
            [
              80.00359327697878,
              17.99692774818315
            ],
            [
              80.00355734420899,
              17.99692774818315
            ],
            [
              80.00355734420899,
              17.996945714568042
            ],
            [
              80.00075458816555,
              17.996945714568042
            ]
          ]
        ]
      },
      "properties": {
        "class": "vegetation_loss",
        "area_px": 808.0
      }
    }
  ]
}