{
  "type": "FeatureCollection",
  "crs": {
    "type": "name",
    "properties": {
      "name": "urn:ogc:def:crs:EPSG::4326"
    }
  },
  "features": [
    {
      "type": "Feature",
      "geometry": {
        "type": "Polygon",
        "coordinates": [
          [
            [
              80.00107798309364,
              18.0
            ],
            [
              80.00107798309364,
              17.99540060546717
            ],
            [
              80.00215596618726,
              17.99540060546717
            ],
            [
              80.00215596618726,
              17.995777899549942
            ],
            [
              80.00217393257216,
              17.995777899549942
            ],
            [
              80.00217393257216,
              17.995867731474412
            ],
            [
              80.00215596618726,
              17.995867731474412
            ],
            [
              80.00215596618726,
              17.99601146255356
            ],
            [
              80.00217393257216,
              17.99601146255356
            ],
            [
              80.00217393257216,
              17.996065361708244
            ],
            [
              80.00215596618726,
              17.996065361708244
            ],
            [
              80.00215596618726,
              17.997143344801877
            ],
            [
              80.00217393257216,
              17.997143344801877
            ],
            [
              80.00217393257216,
              17.997197243956556
            ],
            [
              80.00215596618726,
              17.997197243956556
            ],
            [
              80.00215596618726,
              17.998347092589764
            ],
            [
              80.00217393257216,
              17.998347092589764
            ],
            [
              80.00217393257216,
              17.99841895812934
            ],
            [
              80.00215596618726,
              17.99841895812934
            ],
            [
              80.00215596618726,
              18.0
            ],
            [
              80.00107798309364,
              18.0
            ]
          ]
        ]
      },
      "properties": {
        "class": "water_expansion",
        "area_px": 15375.0
      }
    },
    {
      "type": "Feature",
      "geometry": {
        "type": "Polygon",
        "coordinates": [
          [
            [
              80.00251529388514,
              18.0
            ],
            [
              80.00251529388514,
              17.998724386672535
            ],
            [
              80.00249732750025,
              17.998724386672535
            ],
            [
              80.00249732750025,
              17.998544722823596
            ],
            [
              80.00251529388514,
              17.998544722823596
            ],
            [
              80.00251529388514,
              17.99798776489189
            ],
            [
              80.00249732750025,
              17.99798776489189
            ],
            [
              80.00249732750025,
              17.997933865737206
            ],
            [
              80.00251529388514,
              17.997933865737206
            ],
            [
              80.00251529388514,
              17.99734097503571
            ],
            [
              80.00249732750025,
              17.99734097503571
            ],
            [
              80.00249732750025,
              17.997197243956556
            ],
            [
              80.00251529388514,
              17.997197243956556
            ],
            [
              80.00251529388514,
              17.996496554945697
            ],
            [
              80.00249732750025,
              17.996496554945697
            ],
            [
              80.00249732750025,
              17.996442655791014
            ],
            [
              80.00251529388514,
              17.996442655791014
            ],
            [
              80.00251529388514,
              17.995472471006746
            ],
            [
              80.00249732750025,
              17.995472471006746
            ],
            [
              80.00249732750025,
              17.99540060546717
            ],
            [
              80.0032339492809,
              17.99540060546717
            ],
            [
              80.0032339492809,
              17.998526756438704
            ],
            [
              80.00325191566579,
              17.998526756438704
            ],
            [
              80.00325191566579,
              17.998544722823596
            ],
            [
              80.00328784843558,
              17.998544722823596
            ],
            [
              80.00328784843558,
              17.99856268920849
            ],
            [
              80.00427599960474,
              17.99856268920849
            ],
            [
              80.00427599960474,
              17.998580655593386
            ],
            [
              80.00431193237452,
              17.998580655593386
            ],
            [
              80.00431193237452,
              17.99980236976617
            ],
            [
              80.00427599960474,
              17.99980236976617
            ],
            [
              80.00427599960474,
              17.99982033615106
            ],
            [
              80.00328784843558,
              17.99982033615106
            ],
            [
              80.00328784843558,
              17.999838302535956
            ],
            [
              80.00325191566579,
              17.999838302535956
            ],
            [
              80.00325191566579,
              17.999856268920848
            ],
            [
              80.0032339492809,
              17.999856268920848
            ],
            [
              80.0032339492809,
              18.0
            ],
            [
              80.00251529388514,
              18.0
            ]
          ]
        ]
      },
      "properties": {
        "class": "water_expansion",
        "area_px": 14472.0
      }
    }
  ]
}