{
  "type": "FeatureCollection",
  "crs": {
    "type": "name",
    "properties": {
      "name": "urn:ogc:def:crs:EPSG::4326"
    }
  },
  "features": [
    {
      "type": "Feature",
      "geometry": {
        "type": "Polygon",
        "coordinates": [
          [
            [
              80.00206613426279,
              18.0
            ],
            [
              80.00206613426279,
              17.997700302733584
            ],
            [
              80.0020481678779,
              17.997700302733584
            ],
            [
              80.0020481678779,
              17.997682336348692
            ],
            [
              80.00201223510811,
              17.997682336348692
            ],
            [
              80.00201223510811,
              17.997664369963797
            ],
            [
              80.0,
              17.997664369963797
            ],
            [
              80.0,
              17.997574538039327
            ],
            [
              80.00201223510811,
              17.997574538039327
            ],
            [
              80.00201223510811,
              17.997556571654435
            ],
            [
              80.0020481678779,
              17.997556571654435
            ],
            [
              80.0020481678779,
              17.99753860526954
            ],
            [
              80.00206613426279,
              17.99753860526954
            ],
            [
              80.00206613426279,
              17.997412840575283
            ],
            [
              80.00210206703258,
              17.997412840575283
            ],
            [
              80.00210206703258,
              17.99739487419039
            ],
            [
              80.00213799980237,
              17.99739487419039
            ],
            [
              80.00213799980237,
              17.997412840575283
            ],
            [
              80.00219189895705,
              17.997412840575283
            ],
            [
              80.00219189895705,
              17.99743080696018
            ],
            [
              80.00222783172684,
              17.99743080696018
            ],
            [
              80.00222783172684,
              17.99748470611486
            ],
            [
              80.00220986534194,
              17.99748470611486
            ],
            [
              80.00220986534194,
              17.99753860526954
            ],
            [
              80.00222783172684,
              17.99753860526954
            ],
            [
              80.00222783172684,
              17.997556571654435
            ],
            [
              80.00226376449663,
              17.997556571654435
            ],
            [
              80.00226376449663,
              17.997574538039327
            ],
            [
              80.00459939453283,
              17.997574538039327
            ],
            [
              80.00459939453283,
              17.997664369963797
            ],
            [
              80.00220986534194,
              17.997664369963797
            ],
            [
              80.00220986534194,
              17.997682336348692
            ],
            [
              80.00217393257216,
              17.997682336348692
            ],
            [
              80.00217393257216,
              17.997700302733584
            ],
            [
              80.00215596618726,
              17.997700302733584
            ],
            [
              80.00215596618726,
              18.0
            ],
            [
              80.00206613426279,
              18.0
            ]
          ]
        ]
      },
      "properties": {
        "class": "urban_growth",
        "area_px": 2022.0
      }
    },
    {
      "type": "Feature",
      "geometry": {
        "type": "Polygon",
        "coordinates": [
          [
            [
              80.00355734420899,
              17.9964785885608
            ],
            [
              80.00355734420899,
              17.99646062217591
            ],
            [
              80.0035214114392,
              17.99646062217591
            ],
            [
              80.0035214114392,
              17.99637079025144
            ],
            [
              80.00355734420899,
              17.99637079025144
            ],
            [
              80.00355734420899,
              17.996352823866545
            ],
            [
              80.00357531059387,
              17.996352823866545
            ],
            [
              80.00357531059387,
              17.99637079025144
            ],
            [
              80.00361124336366,
              17.99637079025144
            ],
            [
              80.00361124336366,
              17.996388756636332
            ],
            [
              80.00362920974857,
              17.996388756636332
            ],
            [
              80.00362920974857,
              17.996406723021227
            ],
            [
              80.00366514251834,
              17.996406723021227
            ],
            [
              80.00366514251834,
              17.99646062217591
            ],
            [
              80.00362920974857,
              17.99646062217591
            ],
            [
              80.00362920974857,
              17.9964785885608
            ],
            [
              80.00355734420899,
              17.9964785885608
            ]
          ]
        ]
      },
      "properties": {
        "class": "urban_growth",
        "area_px": 40.0
      }
    },
    {
      "type": "Feature",
      "geometry": {
        "type": "Polygon",
        "coordinates": [
          [
            [
              80.00436583152921,
              17.9964785885608
            ],
            [
              80.00436583152921,
              17.99646062217591
            ],
            [
              80.00432989875942,
              17.99646062217591
            ],
            [
              80.00432989875942,
              17.996406723021227
            ],
            [
              80.00436583152921,
              17.996406723021227
            ],
            [
              80.00436583152921,
              17.996388756636332
            ],
            [
              80.0043837979141,
              17.996388756636332
            ],
            [
              80.0043837979141,
              17.99637079025144
            ],
            [
              80.00441973068389,
              17.99637079025144
            ],
            [
              80.00441973068389,
              17.996352823866545
            ],
            [
              80.00443769706878,
              17.996352823866545
            ],
            [
              80.00443769706878,
              17.99637079025144
            ],
            [
              80.00447362983857,
              17.99637079025144
            ],
            [
              80.00447362983857,
              17.99646062217591
            ],
            [
              80.00443769706878,
              17.99646062217591
            ],
            [
              80.00443769706878,
              17.9964785885608
            ],
            [
              80.00436583152921,
              17.9964785885608
            ]
          ]
        ]
      },
      "properties": {
        "class": "urban_growth",
        "area_px": 40.0
      }
    },
    {
      "type": "Feature",
      "geometry": {
        "type": "Polygon",
        "coordinates": [
          [
            [
              80.00355734420899,
              17.995741966780155
            ],
            [
              80.00355734420899,
              17.99572400039526
            ],
            [
              80.0035214114392,
              17.99572400039526
            ],
            [
              80.0035214114392,
              17.99563416847079
            ],
            [
              80.00355734420899,
              17.99563416847079
            ],
            [
              80.00355734420899,
              17.9956162020859
            ],
            [
              80.00362920974857,
              17.9956162020859
            ],
            [
              80.00362920974857,
              17.99563416847079
            ],
            [
              80.00366514251834,
              17.99563416847079
            ],
            [
              80.00366514251834,
              17.995688067625473
            ],
            [
              80.00362920974857,
              17.995688067625473
            ],
            [
              80.00362920974857,
              17.995706034010368
            ],
            [
              80.00361124336366,
              17.995706034010368
            ],
            [
              80.00361124336366,
              17.99572400039526
            ],
            [
              80.00357531059387,
              17.99572400039526
            ],
            [
              80.00357531059387,
              17.995741966780155
            ],
            [
              80.00355734420899,
              17.995741966780155
            ]
          ]
        ]
      },
      "properties": {
        "class": "urban_growth",
        "area_px": 40.0
      }
    },
    {
      "type": "Feature",
      "geometry": {
        "type": "Polygon",
        "coordinates": [
          [
            [
              80.00441973068389,
              17.995741966780155
            ],
            [
              80.00441973068389,
              17.99572400039526
            ],
            [
              80.0043837979141,
              17.99572400039526
            ],
            [
              80.0043837979141,
              17.995706034010368
            ],
            [
              80.00436583152921,
              17.995706034010368
            ],
            [
              80.00436583152921,
              17.995688067625473
            ],
            [
              80.00432989875942,
              17.995688067625473
            ],
            [
              80.00432989875942,
              17.99563416847079
            ],
            [
              80.00436583152921,
              17.99563416847079
            ],
            [
              80.00436583152921,
              17.9956162020859
            ],
            [
              80.00443769706878,
              17.9956162020859
            ],
            [
              80.00443769706878,
              17.99563416847079
            ],
            [
              80.00447362983857,
              17.99563416847079
            ],
            [
              80.00447362983857,
              17.99572400039526
            ],
            [
              80.00443769706878,
              17.99572400039526
            ],
            [
              80.00443769706878,
              17.995741966780155
            ],
            [
              80.00441973068389,
              17.995741966780155
            ]
          ]
        ]
      },
      "properties": {
        "class": "urban_growth",
        "area_px": 40.0
      }
    }
  ]
}